start=new Date('2022-04-13T00:00:00.000Z').valueOf();
sats=[{"EPOCH":"2022-04-12T20:44:51.828864","ARG_OF_PERICENTER":"71.0968","MEAN_MOTION":"15.06392637","RCS_SIZE":"LARGE","GP_ID":"201092819","LAUNCH_DATE":"2021-02-16","OBJECT_NAME":"STARLINK-1704","TLE_LINE2":"2 47625  53.0574 356.8927 0001566  71.0968 289.0190 15.06392637 64921","COUNTRY_CODE":"US","MEAN_ANOMALY":"289.0190","INCLINATION":"53.0574","BSTAR":"-0.00009559100000","MEAN_MOTION_DOT":"-0.00001705","RA_OF_ASC_NODE":"356.8927","ELEMENT_SET_NO":"999","NORAD_CAT_ID":"47625","REF_FRAME":"TEME","OBJECT_TYPE":"PAYLOAD","PERIOD":"95.593","FILE":"3398892","TLE_LINE1":"1 47625U 21012F   22102.86448876 -.00001705  00000-0 -95591-4 0  9996","DECAY_DATE":null,"PERIAPSIS":"546.152","OBJECT_ID":"2021-012F","TIME_SYSTEM":"UTC","ECCENTRICITY":"0.00015660","CENTER_NAME":"EARTH","CLASSIFICATION_TYPE":"U","SITE":"AFETR","EPHEMERIS_TYPE":"0","MEAN_ELEMENT_THEORY":"SGP4","SEMIMAJOR_AXIS":"6925.371","REV_AT_EPOCH":"6492","APOAPSIS":"548.321","MEAN_MOTION_DDOT":"0.0000000000000"},{"FILE":"3398892","OBJECT_TYPE":"PAYLOAD","PERIOD":"95.592","TLE_LINE1":"1 47626U 21012G   22102.91608831 -.00001041  00000-0 -50970-4 0  9997","DECAY_DATE":null,"PERIAPSIS":"546.095","OBJECT_ID":"2021-012G","CLASSIFICATION_TYPE":"U","TIME_SYSTEM":"UTC","ECCENTRICITY":"0.00016150","CENTER_NAME":"EARTH","MEAN_MOTION_DDOT":"0.0000000000000","SITE":"AFETR","MEAN_ELEMENT_THEORY":"SGP4","EPHEMERIS_TYPE":"0","SEMIMAJOR_AXIS":"6925.348","REV_AT_EPOCH":"6493","APOAPSIS":"548.332","ARG_OF_PERICENTER":"72.6772","MEAN_MOTION":"15.06400152","EPOCH":"2022-04-12T21:59:10.029984","LAUNCH_DATE":"2021-02-16","OBJECT_NAME":"STARLINK-1761","TLE_LINE2":"2 47626  53.0562 356.6641 0001615  72.6772 287.4393 15.06400152 64935","RCS_SIZE":"LARGE","GP_ID":"201093070","MEAN_ANOMALY":"287.4393","INCLINATION":"53.0562","BSTAR":"-0.00005097000000","COUNTRY_CODE":"US","ELEMENT_SET_NO":"999","NORAD_CAT_ID":"47626","REF_FRAME":"TEME","MEAN_MOTION_DOT":"-0.00001041","RA_OF_ASC_NODE":"356.6641"},{"ARG_OF_PERICENTER":"43.1614","MEAN_MOTION":"15.06379483","EPOCH":"2022-04-13T00:00:00.999648","LAUNCH_DATE":"2021-02-16","OBJECT_NAME":"STARLINK-1972","TLE_LINE2":"2 47627  53.0527 261.2664 0001734  43.1614 354.7158 15.06379483  3575","RCS_SIZE":"LARGE","GP_ID":"201093821","MEAN_ANOMALY":"354.7158","INCLINATION":"53.0527","BSTAR":"0.00017282000000","COUNTRY_CODE":"US","ELEMENT_SET_NO":"999","NORAD_CAT_ID":"47627","REF_FRAME":"TEME","MEAN_MOTION_DOT":"0.00002292","RA_OF_ASC_NODE":"261.2664","FILE":"3398892","OBJECT_TYPE":"PAYLOAD","PERIOD":"95.593","TLE_LINE1":"1 47627U 21012H   22103.00001157  .00002292  00000-0  17282-3 0  9992","PERIAPSIS":"546.076","DECAY_DATE":null,"OBJECT_ID":"2021-012H","CLASSIFICATION_TYPE":"U","TIME_SYSTEM":"UTC","ECCENTRICITY":"0.00017340","CENTER_NAME":"EARTH","MEAN_MOTION_DDOT":"0.0000000000000","SITE":"AFETR","EPHEMERIS_TYPE":"0","MEAN_ELEMENT_THEORY":"SGP4","REV_AT_EPOCH":"357","SEMIMAJOR_AXIS":"6925.411","APOAPSIS":"548.477"},{"INCLINATION":"53.0556","MEAN_ANOMALY":"291.0225","BSTAR":"-0.00011634000000","COUNTRY_CODE":"US","ELEMENT_SET_NO":"999","NORAD_CAT_ID":"47628","REF_FRAME":"TEME","MEAN_MOTION_DOT":"-0.00002013","RA_OF_ASC_NODE":"356.7932","ARG_OF_PERICENTER":"69.0932","MEAN_MOTION":"15.06389611","EPOCH":"2022-04-12T21:16:44.692896","OBJECT_NAME":"STARLINK-1973","LAUNCH_DATE":"2021-02-16","TLE_LINE2":"2 47628  53.0556 356.7932 0001570  69.0932 291.0225 15.06389611 64933","RCS_SIZE":"LARGE","GP_ID":"201092569","CLASSIFICATION_TYPE":"U","TIME_SYSTEM":"UTC","CENTER_NAME":"EARTH","ECCENTRICITY":"0.00015700","MEAN_MOTION_DDOT":"0.0000000000000","MEAN_ELEMENT_THEORY":"SGP4","SITE":"AFETR","EPHEMERIS_TYPE":"0","APOAPSIS":"548.333","SEMIMAJOR_AXIS":"6925.380","REV_AT_EPOCH":"6493","FILE":"3398892","OBJECT_TYPE":"PAYLOAD","PERIOD":"95.593","PERIAPSIS":"546.158","TLE_LINE1":"1 47628U 21012J   22102.88662839 -.00002013  00000-0 -11634-3 0  9996","DECAY_DATE":null,"OBJECT_ID":"2021-012J"},{"COUNTRY_CODE":"US","INCLINATION":"53.0541","MEAN_ANOMALY":"298.4907","BSTAR":"-0.00151420000000","MEAN_MOTION_DOT":"-0.00022775","RA_OF_ASC_NODE":"236.2729","ELEMENT_SET_NO":"999","NORAD_CAT_ID":"47629","REF_FRAME":"TEME","EPOCH":"2022-04-13T00:00:00.999648","ARG_OF_PERICENTER":"56.8930","MEAN_MOTION":"15.06418114","RCS_SIZE":"LARGE","GP_ID":"201092319","OBJECT_NAME":"STARLINK-1974","LAUNCH_DATE":"2021-02-16","TLE_LINE2":"2 47629  53.0541 236.2729 0001516  56.8930 298.4907 15.06418114  3578","TIME_SYSTEM":"UTC","CENTER_NAME":"EARTH","ECCENTRICITY":"0.00015160","CLASSIFICATION_TYPE":"U","EPHEMERIS_TYPE":"0","SITE":"AFETR","MEAN_ELEMENT_THEORY":"SGP4","APOAPSIS":"548.208","REV_AT_EPOCH":"357","SEMIMAJOR_AXIS":"6925.293","MEAN_MOTION_DDOT":"0.0000000000000","OBJECT_TYPE":"PAYLOAD","PERIOD":"95.591","FILE":"3398892","TLE_LINE1":"1 47629U 21012K   22103.00001157 -.00022775  00000-0 -15142-2 0  9996","PERIAPSIS":"546.108","DECAY_DATE":null,"OBJECT_ID":"2021-012K"},{"NORAD_CAT_ID":"47630","ELEMENT_SET_NO":"999","REF_FRAME":"TEME","MEAN_MOTION_DOT":"-0.00000164","RA_OF_ASC_NODE":"336.8083","INCLINATION":"53.0566","MEAN_ANOMALY":"313.2478","BSTAR":"0.00000793300000","COUNTRY_CODE":"US","LAUNCH_DATE":"2021-02-16","OBJECT_NAME":"STARLINK-1983","TLE_LINE2":"2 47630  53.0566 336.8083 0001899  46.8669 313.2478 15.06395244 65192","RCS_SIZE":"LARGE","GP_ID":"201093571","ARG_OF_PERICENTER":"46.8669","MEAN_MOTION":"15.06395244","EPOCH":"2022-04-12T21:12:41.696352","MEAN_MOTION_DDOT":"0.0000000000000","MEAN_ELEMENT_THEORY":"SGP4","SITE":"AFETR","EPHEMERIS_TYPE":"0","APOAPSIS":"548.543","REV_AT_EPOCH":"6519","SEMIMAJOR_AXIS":"6925.363","CLASSIFICATION_TYPE":"U","TIME_SYSTEM":"UTC","CENTER_NAME":"EARTH","ECCENTRICITY":"0.00018990","PERIAPSIS":"545.913","TLE_LINE1":"1 47630U 21012L   22102.88381593 -.00000164  00000-0  79330-5 0  9997","DECAY_DATE":null,"OBJECT_ID":"2021-012L","FILE":"3398892","OBJECT_TYPE":"PAYLOAD","PERIOD":"95.592"},{"OBJECT_NAME":"STARLINK-1992","LAUNCH_DATE":"2021-02-16","TLE_LINE2":"2 47632  53.0527 261.2900 0001550  53.8536 209.2554 15.06396745  3564","RCS_SIZE":"LARGE","GP_ID":"201093321","ARG_OF_PERICENTER":"53.8536","MEAN_MOTION":"15.06396745","EPOCH":"2022-04-13T00:00:00.999648","ELEMENT_SET_NO":"999","NORAD_CAT_ID":"47632","REF_FRAME":"TEME","MEAN_MOTION_DOT":"-0.00016354","RA_OF_ASC_NODE":"261.2900","MEAN_ANOMALY":"209.2554","INCLINATION":"53.0527","BSTAR":"-0.00108160000000","COUNTRY_CODE":"US","TLE_LINE1":"1 47632U 21012N   22103.00001157 -.00016354  00000-0 -10816-2 0  9999","DECAY_DATE":null,"PERIAPSIS":"546.150","OBJECT_ID":"2021-012N","FILE":"3398892","OBJECT_TYPE":"PAYLOAD","PERIOD":"95.592","MEAN_MOTION_DDOT":"0.0000000000000","SITE":"AFETR","EPHEMERIS_TYPE":"0","MEAN_ELEMENT_THEORY":"SGP4","REV_AT_EPOCH":"356","SEMIMAJOR_AXIS":"6925.359","APOAPSIS":"548.297","CLASSIFICATION_TYPE":"U","TIME_SYSTEM":"UTC","ECCENTRICITY":"0.00015500","CENTER_NAME":"EARTH"},{"MEAN_MOTION_DDOT":"0.0000000000000","EPHEMERIS_TYPE":"0","SITE":"AFETR","MEAN_ELEMENT_THEORY":"SGP4","APOAPSIS":"548.391","SEMIMAJOR_AXIS":"6925.406","REV_AT_EPOCH":"6495","CLASSIFICATION_TYPE":"U","TIME_SYSTEM":"UTC","CENTER_NAME":"EARTH","ECCENTRICITY":"0.00016170","TLE_LINE1":"1 47633U 21012P   22102.90135500 -.00002234  00000-0 -13120-3 0  9992","OBJECT_ID":"2021-012P","DECAY_DATE":null,"PERIAPSIS":"546.151","FILE":"3398892","OBJECT_TYPE":"PAYLOAD","PERIOD":"95.593","ELEMENT_SET_NO":"999","NORAD_CAT_ID":"47633","REF_FRAME":"TEME","MEAN_MOTION_DOT":"-0.00002234","RA_OF_ASC_NODE":"356.7175","INCLINATION":"53.0561","MEAN_ANOMALY":"298.8912","BSTAR":"-0.00013120000000","COUNTRY_CODE":"US","LAUNCH_DATE":"2021-02-16","OBJECT_NAME":"STARLINK-2009","TLE_LINE2":"2 47633  53.0561 356.7175 0001617  61.2240 298.8912 15.06381291 64958","RCS_SIZE":"LARGE","GP_ID":"201092069","ARG_OF_PERICENTER":"61.2240","MEAN_MOTION":"15.06381291","EPOCH":"2022-04-12T21:37:57.072000"},{"RCS_SIZE":"LARGE","GP_ID":"201092820","OBJECT_NAME":"STARLINK-2010","LAUNCH_DATE":"2021-02-16","TLE_LINE2":"2 47634  53.0564 356.8191 0001470  77.0029 283.1124 15.06389827 64920","EPOCH":"2022-04-12T21:06:07.136928","ARG_OF_PERICENTER":"77.0029","MEAN_MOTION":"15.06389827","MEAN_MOTION_DOT":"-0.00000903","RA_OF_ASC_NODE":"356.8191","NORAD_CAT_ID":"47634","ELEMENT_SET_NO":"999","REF_FRAME":"TEME","COUNTRY_CODE":"US","INCLINATION":"53.0564","MEAN_ANOMALY":"283.1124","BSTAR":"-0.00004172300000","DECAY_DATE":null,"TLE_LINE1":"1 47634U 21012Q   22102.87924927 -.00000903  00000-0 -41723-4 0  9990","OBJECT_ID":"2021-012Q","PERIAPSIS":"546.227","OBJECT_TYPE":"PAYLOAD","PERIOD":"95.593","FILE":"3398892","MEAN_ELEMENT_THEORY":"SGP4","SITE":"AFETR","EPHEMERIS_TYPE":"0","APOAPSIS":"548.263","REV_AT_EPOCH":"6492","SEMIMAJOR_AXIS":"6925.380","MEAN_MOTION_DDOT":"0.0000000000000","TIME_SYSTEM":"UTC","CENTER_NAME":"EARTH","ECCENTRICITY":"0.00014700","CLASSIFICATION_TYPE":"U"},{"REF_FRAME":"TEME","ELEMENT_SET_NO":"999","NORAD_CAT_ID":"47635","RA_OF_ASC_NODE":"261.1890","MEAN_MOTION_DOT":"0.00008304","BSTAR":"0.00057565000000","INCLINATION":"53.0588","MEAN_ANOMALY":"94.7726","COUNTRY_CODE":"US","TLE_LINE2":"2 47635  53.0588 261.1890 0001395  63.1512  94.7726 15.06401889  3571","LAUNCH_DATE":"2021-02-16","OBJECT_NAME":"STARLINK-2012","GP_ID":"201093071","RCS_SIZE":"LARGE","MEAN_MOTION":"15.06401889","ARG_OF_PERICENTER":"63.1512","EPOCH":"2022-04-13T00:00:00.999648","MEAN_MOTION_DDOT":"0.0000000000000","APOAPSIS":"548.174","SEMIMAJOR_AXIS":"6925.343","REV_AT_EPOCH":"357","SITE":"AFETR","EPHEMERIS_TYPE":"0","MEAN_ELEMENT_THEORY":"SGP4","CLASSIFICATION_TYPE":"U","CENTER_NAME":"EARTH","ECCENTRICITY":"0.00013950","TIME_SYSTEM":"UTC","PERIAPSIS":"546.242","TLE_LINE1":"1 47635U 21012R   22103.00001157  .00008304  00000-0  57565-3 0  9999","DECAY_DATE":null,"OBJECT_ID":"2021-012R","FILE":"3398892","PERIOD":"95.592","OBJECT_TYPE":"PAYLOAD"}];
